#cP2011 10 13  0  0  0.00000000      96 ORBIT IGS08 HLM  IGS
## 1657 345600.00000000   900.00000000 55847 0.0000000000000
+   31   G01G02G03G04G05G06G07G08G09G10G11G12G13G14G15G16G17
+        G18G19G20G21G22G23G25G26G27G28G29G30G31G32  0  0  0
+          0  0  0  0  0  0  0  0  0  0  0  0  0  0  0  0  0
+          0  0  0  0  0  0  0  0  0  0  0  0  0  0  0  0  0
+          0  0  0  0  0  0  0  0  0  0  0  0  0  0  0  0  0
++         3  2  2  2  2  2  2  3  3  2  2  2  2  2  2  2  2
++         2  2  2  2  2  2  2  2  3  2  2  2  2  2  0  0  0
++         0  0  0  0  0  0  0  0  0  0  0  0  0  0  0  0  0
++         0  0  0  0  0  0  0  0  0  0  0  0  0  0  0  0  0
++         0  0  0  0  0  0  0  0  0  0  0  0  0  0  0  0  0
%c G  cc GPS ccc cccc cccc cccc cccc ccccc ccccc ccccc ccccc
%c cc cc ccc ccc cccc cccc cccc cccc ccccc ccccc ccccc ccccc
%f  1.2500000  1.025000000  0.00000000000  0.000000000000000
%f  0.0000000  0.000000000  0.00000000000  0.000000000000000
%i    0    0    0    0      0      0      0      0         0
%i    0    0    0    0      0      0      0      0         0
/* FINAL ORBIT COMBINATION FROM WEIGHTED AVERAGE OF:        
/* cod emr esa gfz grg jpl mit ngs sio                      
/* REFERENCED TO IGS TIME (IGST) AND TO WEIGHTED MEAN POLE: 
/* PCV:IGS08_1657 OL/AL:FES2004  NONE     Y  ORB:CMB CLK:CMB
*  2011 10 13  2 15  0.00000000
PG01 -12656.919451  22612.627595  -5834.931735     21.452325 12  2 12 155       
PG02  20225.010749  -9493.488651 -13898.493512    360.544245  5  7  8  98       
PG03 -16480.496096   1583.023351  20370.011495    780.563437  6  8  6 100       
PG04  16103.575290   4451.671380 -20935.621304    258.800123  8  8  7 132       
PG05  24621.320212  -3160.776369   9600.590747   -230.931514  5  8  5 127       
PG06 -17587.257399  -3474.754024  19807.416088    -50.705931  7  8  6 137       
PG07   -742.721776  19734.881449  17654.482984     31.465373  4  6  7 143       
PG08   7529.957188  12714.044487  22055.577509      0.046031  3  7  8 170       
PG09  14692.501670 -22018.286635  -2869.260163 999999.999999
PG10  23669.422716   9878.080820  -7855.709521    -16.021510  8  6  2 104       
PG11 -12494.876934  23039.352585   2630.748217   -194.233654  7  7  8 128       
PG12  10020.156476 -12677.804269 -21035.939118     28.145533  8  6  4 120       
PG13   3697.106970  25688.236176  -5575.343339    246.929413  8  3  8 101       
PG14 -14557.645170 -18496.579066 -12274.817958    176.550887  5  6  8 126       
PG15   8247.131474 -16279.265798  19245.944304   -102.798418  6  6  7 144       
PG16 -24304.500452   2696.620172  10735.875608   -203.025721  9 10  6 122       
PG17  15168.534237  18453.120540 -11714.252323    170.940497  5  8  8 142       
PG18 -10624.464964 -15976.551280  18848.587195    161.856709  5  7  7 131       
PG19 -11010.345689  12988.330042  20261.221071   -193.659726  7  9  8 139       
PG20  -8517.718821  14499.815473 -20690.394883     54.300233  9  6  7 120       
PG21  -3954.437888 -17952.300742  19404.715270   -177.516783  4  5  8 125       
PG22 -22404.531580 -10987.494144   9438.018072    144.014784  5  6  6 103       
PG23  -2105.995442  22254.267239 -14035.764515    268.398108  9  6  8 134       
PG25  -2492.637130 -15392.088292 -21530.864042     23.089736  5  7  7 144       
PG26  14049.362567  -3249.797902  21716.471128   -188.654475  6  8  6 141       
PG27  17971.624010 -18764.718739   5025.328571    314.594933 11  9  8 175       
PG28  19854.563787  12841.002408  12875.717997     75.100145  6  8  7 133       
PG29  -4619.552277 -25554.327764  -5615.739575    247.905803  6  5  9 115       
PG30 -18871.152881 -11600.670516 -15063.418634     70.379422  4  4  7 139       
PG31 -17128.927235   -450.850922 -20154.814703    154.591213  5  8  5 140       
PG32 -16976.891134   8934.893366 -17912.955549   -344.492542  6  6  8 123       
*  2011 10 13  2 30  0.00000000
PG01 -13159.137772  22871.459252  -3039.448703     21.480453 13  5 12 144       
PG02  19411.906231  -7931.624525 -15926.234085    360.545792  5  6  7  92       
PG03 -17602.550052   -515.146136  19513.581766    780.567688  6  8  6 104       
PG04  14708.082570   6380.051001 -21432.647609    258.810622  8  7  6 137       
PG05  25534.075513  -2802.944700   6983.867248   -230.935851  5  8  5 133       
PG06 -18431.288971  -5478.120791  18561.404066    -50.699607  7  8  6 137       
PG07  -2029.686882  21162.445705  15778.751538     31.467185  5  6  7 141       
PG08   5830.923393  14516.867876  21396.813264      0.045330  4  6  8 170       
PG09  14901.764488 -21992.508739     25.739112 999999.999999
PG10  22638.974322   9967.300360 -10401.818714    -16.021139  8  6  2  79       
PG11 -12751.948978  22394.560496   5301.460139   -194.236911  7  7  8 131       
PG12  12335.940078 -12271.055057 -20007.166184     28.147439  8  6  4 124       
PG13   3289.897748  25001.508071  -8341.605747    246.927727  9  4  8 103       
PG14 -14831.818640 -19756.242272  -9777.509521    176.552604  5  5  8 109       
PG15   9292.399343 -14257.312768  20358.596858   -102.797000  6  6  7 145       
PG16 -25333.588162   2365.312642   8140.794549   -203.027635  9 10  6 114       
PG17  15412.496625  19656.786157  -9222.920343    170.938988  5  8  8 137       
PG18  -8468.223329 -15809.197508  20032.285998    161.858384  5  7  7 134       
PG19 -11842.688589  10755.108201  21114.149429   -193.663392  7  9  8 139       
PG20 -10800.764137  14210.071341 -19793.935542     54.300970  9  6  7 122       
PG21  -2541.198794 -19501.040202  18013.901726   -177.518498  4  5  8 114       
PG22 -21179.871924 -11107.610892  11851.478240    144.014384  3  6  6  96       
PG23  -2956.672741  20721.248821 -16107.178765    268.395365  9  6  8 137       
PG25    -30.029796 -15151.179899 -21841.647761     23.091447  6  7  7 127       
PG26  14865.848517   -790.659980  21441.750453   -188.666453  6  8  6 145       
PG27  17765.066694 -18099.341091   7820.008871    314.600620 11  9  9 180       
PG28  18342.974087  12727.857931  15106.349564     75.103075  5  8  7 130       
PG29  -4112.295440 -24886.882964  -8320.616378    247.908561  7  5  9 137       
PG30 -17097.632512 -11737.534176 -17000.125568     70.373368  5  4  7 138       
PG31 -15715.762599  -2382.815235 -21118.443855    154.595910  5  8  4 137       
PG32 -18907.199938   8328.040172 -16174.812772   -344.498499  6  5  7 107       
*  2011 10 13  2 45  0.00000000
PG01 -13473.116467  22888.242823   -191.660309     21.508590 12  6 13 146       
PG02  18558.572794  -6154.102820 -17672.748378    360.547427  4  6  7 115       
PG03 -18753.001572  -2457.057129  18310.727804    780.572888  6  8  6 106       
PG04  13388.214123   8406.909962 -21569.281442    258.820602  8  7  6 141       
PG05  26162.360393  -2510.477681   4247.744546   -230.940488  4  8  6 129       
PG06 -19294.325497  -7300.220109  17001.853884    -50.693106  6  8  6 144       
PG07  -3110.402366  22468.514438  13628.876447     31.469099  5  7  7 129       
PG08   4294.454816  16343.131554  20367.631111      0.045422  4  6  8 172       
PG09  14939.461728 -21698.834660   2920.240587 999999.999999
PG10  21341.263471  10085.857129 -12774.322090    -16.020915  8  5  3  57       
PG11 -12940.402127  21478.418455   7878.282389   -194.239557  7  8  8 128       
PG12  14535.625639 -12001.381660 -18632.365490     28.149714  8  6  4 124       
PG13   2732.792528  24054.918475 -10964.325865    246.925515  9  5  8  91       
PG14 -15061.092301 -20727.709621  -7112.063626    176.554215  5  4  8 107       
PG15  10485.375541 -12197.457493  21119.932791   -102.795701  6  7  7 138       
PG16 -26080.456984   2120.842239   5408.000278   -203.029701  9 10  5 111       
PG17  15598.981120  20580.551821  -6574.024213    170.937222  4  7  8 127       
PG18  -6192.139407 -15738.597002  20883.675476    161.860067  4  7  6 133       
PG19 -12815.340112   8500.005063  21600.894971   -193.666903  7  9  8 141       
PG20 -12976.849173  14032.259342 -18560.411817     54.301567  9  6  7 112       
PG21  -1294.456749 -20976.570731  16316.906078   -177.521117  5  5  8  89       
PG22 -19704.899265 -11264.346614  14063.960209    144.014557  3  6  6  87       
PG23  -3979.701322  19037.423974 -17896.714685    268.392330  9  7  8 136       
PG25   2456.081901 -15040.330777 -21777.546112     23.093032  6  6  6 127       
PG26  15792.977984   1564.870895  20778.418557   -188.678552  6  8  5 135       
PG27  17433.328041 -17163.773869  10479.847777    314.604792 11  9  9 179       
PG28  16596.944687  12673.789991  17088.304695     75.106218  4  9  7 121       
PG29  -3448.059823 -23974.696975 -10882.297032    247.911919  7  6  9 140       
PG30 -15135.925679 -11973.883101 -18652.572058     70.367181  5  3  7 146       
PG31 -14359.373533  -4465.382612 -21713.391154    154.600920  5  7  4 143       
PG32 -20652.298253   7849.761708 -14147.993029   -344.504180  5  5  7 117       
EOF
